H1 CPF 01  gfz 2021 07 31 00  7121 tandemx   
H2 1003001  6202 36605    2021 07 31 00 59 42 2021 08 05 00 00 42   120 1 1  0 0 0
H9
10 0 59429   9342.000000  0     135895.830   1574615.618   6693915.969
10 0 59429   9462.000000  0     729188.050   2239430.792   6462739.739
10 0 59429   9582.000000  0    1320957.842   2854792.616   6117973.624
10 0 59429   9702.000000  0    1899912.802   3410072.297   5665645.196
10 0 59429   9822.000000  0    2454800.694   3895877.804   5113671.918
10 0 59429   9942.000000  0    2974629.969   4304218.008   4471728.525
10 0 59429  10062.000000  0    3448889.408   4628638.875   3751081.314
10 0 59429  10182.000000  0    3867762.398   4864331.103   2964395.572
10 0 59429  10302.000000  0    4222336.201   5008208.453   2125513.331
10 0 59429  10422.000000  0    4504792.150   5058947.273   1249204.219
10 0 59429  10542.000000  0    4708577.780   5016993.447    350902.219
10 0 59429  10662.000000  0    4828556.366   4884533.244   -553576.087
10 0 59429  10782.000000  0    4861125.691   4665425.609  -1448319.063
10 0 59429  10902.000000  0    4804307.338   4365102.128  -2317607.148
10 0 59429  11022.000000  0    4657803.338   3990436.882  -3146195.620
10 0 59429  11142.000000  0    4423018.283   3549588.814  -3919586.284
10 0 59429  11262.000000  0    4103046.256   3051821.442  -4624281.715
10 0 59429  11382.000000  0    3702625.485   2507304.566  -5248017.360
10 0 59429  11502.000000  0    3228061.925   1926903.251  -5779968.533
10 0 59429  11622.000000  0    2687122.830   1321959.013  -6210928.948
10 0 59429  11742.000000  0    2088903.785    704068.095  -6533458.393
10 0 59429  11862.000000  0    1443673.274     84861.775  -6741998.892
10 0 59429  11982.000000  0     762697.631   -524208.220  -6832961.930
10 0 59429  12102.000000  0      58045.566  -1112077.439  -6804783.496
10 0 59429  12222.000000  0    -657620.776  -1668264.039  -6657946.283
10 0 59429  12342.000000  0   -1371267.196  -2183050.433  -6394973.227
10 0 59429  12462.000000  0   -2069719.605  -2647650.534  -6020389.279
10 0 59429  12582.000000  0   -2739901.709  -3054358.273  -5540651.348
10 0 59429  12702.000000  0   -3369076.552  -3396676.665  -4964049.051
10 0 59429  12822.000000  0   -3945089.445  -3669425.776  -4300573.180
10 0 59429  12942.000000  0   -4456605.274  -3868825.278  -3561752.704
10 0 59429  13062.000000  0   -4893336.402  -3992550.846  -2760463.339
10 0 59429  13182.000000  0   -5246256.110  -4039762.568  -1910708.391
10 0 59429  13302.000000  0   -5507791.609  -4011103.507  -1027375.479
10 0 59429  13422.000000  0   -5671991.844  -3908668.380   -125973.779
10 0 59429  13542.000000  0   -5734665.604  -3735942.629    777643.451
10 0 59429  13662.000000  0   -5693485.626  -3497713.200   1667566.442
10 0 59429  13782.000000  0   -5548053.946  -3199951.334   2528119.169
10 0 59429  13902.000000  0   -5299927.880  -2849671.628   3344143.746
10 0 59429  14022.000000  0   -4952606.846  -2454772.105   4101274.601
10 0 59429  14142.000000  0   -4511479.222  -2023857.315   4786196.566
10 0 59429  14262.000000  0   -3983731.549  -1566050.721   5386879.191
10 0 59429  14382.000000  0   -3378224.833  -1090801.997   5892785.665
10 0 59429  14502.000000  0   -2705339.148   -607691.652   6295055.161
10 0 59429  14622.000000  0   -1976788.193   -126236.744   6586653.219
10 0 59429  14742.000000  0   -1205409.649    344296.064   6762487.141
10 0 59429  14862.000000  0    -404937.024    795066.883   6819489.081
10 0 59429  14982.000000  0     410244.983   1217827.699   6756666.139
10 0 59429  15102.000000  0    1225358.181   1605073.007   6575116.696
10 0 59429  15222.000000  0    2025498.141   1950173.404   6278011.967
10 0 59429  15342.000000  0    2795905.846   2247489.115   5870543.973
10 0 59429  15462.000000  0    3522241.233   2492463.271   5359841.100
10 0 59429  15582.000000  0    4190853.590   2681692.915   4754848.999
10 0 59429  15702.000000  0    4789041.915   2812976.864   4066179.627
10 0 59429  15822.000000  0    5305304.056   2885339.371   3305931.000
10 0 59429  15942.000000  0    5729567.639   2899026.983   2487473.652
10 0 59429  16062.000000  0    6053392.384   2855479.822   1625214.629
10 0 59429  16182.000000  0    6270145.804   2757279.067    734339.765
10 0 59429  16302.000000  0    6375143.284   2608069.357   -169461.718
10 0 59429  16422.000000  0    6365748.243   2412458.229  -1070283.074
10 0 59429  16542.000000  0    6241429.959   2175895.710  -1952287.570
10 0 59429  16662.000000  0    6003782.360   1904539.691  -2799993.480
10 0 59429  16782.000000  0    5656498.829   1605106.889  -3598552.360
10 0 59429  16902.000000  0    5205305.414   1284714.516  -4334011.668
10 0 59429  17022.000000  0    4657853.667    950716.989  -4993557.149
10 0 59429  17142.000000  0    4023578.777    610543.126  -5565729.528
10 0 59429  17262.000000  0    3313527.390    271536.458  -6040614.818
10 0 59429  17382.000000  0    2540157.446    -59197.744  -6410005.920
10 0 59429  17502.000000  0    1717115.245   -374936.230  -6667532.477
10 0 59429  17622.000000  0     858995.474   -669469.650  -6808760.455
10 0 59429  17742.000000  0     -18915.432   -937220.645  -6831261.103
10 0 59429  17862.000000  0    -900906.251  -1173345.662  -6734646.581
10 0 59429  17982.000000  0   -1771114.855  -1373820.124  -6520576.500
10 0 59429  18102.000000  0   -2613807.467  -1535505.793  -6192732.509
10 0 59429  18222.000000  0   -3413656.487  -1656198.953  -5756760.803
10 0 59429  18342.000000  0   -4156015.658  -1734659.897  -5220186.524
10 0 59429  18462.000000  0   -4827190.233  -1770622.529  -4592295.610
10 0 59429  18582.000000  0   -5414693.925  -1764783.299  -3883985.074
10 0 59429  18702.000000  0   -5907489.394  -1718770.027  -3107584.054
10 0 59429  18822.000000  0   -6296206.479  -1635090.604  -2276645.699
10 0 59429  18942.000000  0   -6573331.953  -1517061.993  -1405713.684
10 0 59429  19062.000000  0   -6733366.284  -1368721.401   -510067.004
10 0 59429  19182.000000  0   -6772942.682  -1194721.006    394552.600
10 0 59429  19302.000000  0   -6690904.187  -1000208.437   1292224.615
10 0 59429  19422.000000  0   -6488336.123   -790697.115   2167138.843
10 0 59429  19542.000000  0   -6168553.268   -571929.188   3003882.934
10 0 59429  19662.000000  0   -5737042.104   -349734.337   3787722.231
10 0 59429  19782.000000  0   -5201358.608   -129888.305   4504865.607
10 0 59429  19902.000000  0   -4570985.412     82024.354   5142710.190
10 0 59429  20022.000000  0   -3857154.334    280741.379   5690061.464
10 0 59429  20142.000000  0   -3072637.247    461444.102   6137327.220
10 0 59429  20262.000000  0   -2231508.956    619865.783   6476680.586
10 0 59429  20382.000000  0   -1348888.868    752385.327   6702191.538
10 0 59429  20502.000000  0    -440665.069    856105.424   6809924.177
10 0 59429  20622.000000  0     476792.185    928912.721   6798000.112
10 0 59429  20742.000000  0    1386924.489    969519.622   6666628.881
10 0 59429  20862.000000  0    2273283.010    977487.386   6418104.634
10 0 59429  20982.000000  0    3119825.013    953229.481   6056768.966
10 0 59429  21102.000000  0    3911206.064    897995.365   5588940.135
10 0 59429  21222.000000  0    4633061.086    813835.260   5022807.492
10 0 59429  21342.000000  0    5272270.296    703545.675   4368295.404
10 0 59429  21462.000000  0    5817207.219    570597.463   3636894.822
10 0 59429  21582.000000  0    6257960.512    419048.209   2841463.058
10 0 59429  21702.000000  0    6586523.136    253439.858   1995996.621
10 0 59429  21822.000000  0    6796947.546     78683.316   1115382.966
10 0 59429  21942.000000  0    6885460.610   -100065.196    215131.721
10 0 59429  22062.000000  0    6850535.499   -277534.552   -688906.394
10 0 59429  22182.000000  0    6692917.534   -448472.285  -1580828.198
10 0 59429  22302.000000  0    6415604.219   -607777.415  -2444966.215
10 0 59429  22422.000000  0    6023779.847   -750629.369  -3266170.203
10 0 59429  22542.000000  0    5524707.824   -872609.805  -4030076.229
10 0 59429  22662.000000  0    4927583.298   -969813.818  -4723357.855
10 0 59429  22782.000000  0    4243351.479  -1038947.882  -5333954.165
10 0 59429  22902.000000  0    3484496.738  -1077413.652  -5851272.546
10 0 59429  23022.000000  0    2664806.265  -1083375.871  -6266362.680
10 0 59429  23142.000000  0    1799114.926  -1055811.661  -6572059.951
10 0 59429  23262.000000  0     903036.121   -994541.542  -6763097.878
10 0 59429  23382.000000  0      -7316.912   -900242.958  -6836189.700
10 0 59429  23502.000000  0    -915615.608   -774444.238  -6790078.315
10 0 59429  23622.000000  0   -1805601.781   -619500.439  -6625555.831
10 0 59429  23742.000000  0   -2661372.471   -438550.336  -6345450.948
10 0 59429  23862.000000  0   -3467657.224   -235456.159  -5954584.578
10 0 59429  23982.000000  0   -4210086.712    -14726.236  -5459697.170
10 0 59429  24102.000000  0   -4875450.083    218578.348  -4869343.165
10 0 59429  24222.000000  0   -5451933.742    458950.977  -4193755.049
10 0 59429  24342.000000  0   -5929340.300    700560.256  -3444677.454
10 0 59429  24462.000000  0   -6299280.496    937381.497  -2635171.117
10 0 59429  24582.000000  0   -6555333.399   1163335.863  -1779389.725
10 0 59429  24702.000000  0   -6693170.816   1372433.969   -892333.892
10 0 59429  24822.000000  0   -6710642.915   1558921.011     10415.840
10 0 59429  24942.000000  0   -6607817.968   1717417.946    912979.799
10 0 59429  25062.000000  0   -6386978.883   1843057.265   1799465.737
10 0 59429  25182.000000  0   -6052575.529   1931609.140   2654257.825
10 0 59429  25302.000000  0   -5611132.873   1979594.048   3462300.802
10 0 59429  25422.000000  0   -5071116.996   1984378.471   4209372.321
10 0 59429  25542.000000  0   -4442763.716   1944252.082   4882336.676
10 0 59429  25662.000000  0   -3737875.465   1858484.835   5469375.786
10 0 59429  25782.000000  0   -2969591.765   1727362.952   5960194.848
99
